<?xml version='1.0' encoding='utf-8'?>
<q:quakeml xmlns:q="http://quakeml.org/xmlns/quakeml/1.2" xmlns:catalog="http://anss.org/xmlns/catalog/0.1" xmlns:css="http://www.seismo.unr.edu/schema/css3.0" xmlns="http://quakeml.org/xmlns/bed/1.2">
  <eventParameters publicID="quakeml:www.seismo.unr.edu/Catalog/450180">
    <creationInfo>
      <agencyID>NN</agencyID>
      <creationTime>2014-06-25T17:19:37.179794Z</creationTime>
      <version>450180</version>
    </creationInfo>
    <event publicID="quakeml:www.seismo.unr.edu/Events/main.php?evid=450180" catalog:eventid="00450180" catalog:dataid="nn00450180" catalog:eventsource="nn" catalog:datasource="nn">
      <preferredOriginID>quakeml:www.seismo.unr.edu/Origin/1134662</preferredOriginID>
      <preferredMagnitudeID>quakeml:www.seismo.unr.edu/Magnitude/ml/223380</preferredMagnitudeID>
      <type>earthquake</type>
      <description>
        <text>6.3 km NW of Incline_Village, NV</text>
        <type>nearest cities</type>
      </description>
      <creationInfo>
        <agencyID>NN</agencyID>
        <author>BRTT:tom</author>
        <creationTime>2014-06-25T17:18:09.461040Z</creationTime>
        <version>450180</version>
      </creationInfo>
      <origin publicID="quakeml:www.seismo.unr.edu/Origin/1134662">
        <time>
          <value>2014-06-25T16:19:43.591570Z</value>
          <uncertainty>0.07</uncertainty>
        </time>
        <latitude>
          <value>39.3104</value>
          <uncertainty>0.00390194284397</uncertainty>
        </latitude>
        <longitude>
          <value>-119.9841</value>
          <uncertainty>0.00521188450616</uncertainty>
        </longitude>
        <depth>
          <value>7185.0</value>
          <uncertainty>1124.9</uncertainty>
        </depth>
        <quality>
          <associatedPhaseCount>59</associatedPhaseCount>
          <usedPhaseCount>41</usedPhaseCount>
          <associatedStationCount>42</associatedStationCount>
          <usedStationCount>27</usedStationCount>
          <standardError>0.1258</standardError>
          <azimuthalGap>42.05</azimuthalGap>
          <minimumDistance>0.044</minimumDistance>
          <maximumDistance>1.644</maximumDistance>
          <medianDistance>0.397</medianDistance>
        </quality>
        <evaluationMode>manual</evaluationMode>
        <evaluationStatus>reviewed</evaluationStatus>
        <creationInfo>
          <agencyID>NN</agencyID>
          <author>BRTT:tom</author>
          <creationTime>2014-06-25T17:18:09.461040Z</creationTime>
          <version>1134662</version>
        </creationInfo>
        <originUncertainty>
          <preferredDescription>horizontal uncertainty</preferredDescription>
          <horizontalUncertainty>457.1</horizontalUncertainty>
          <minHorizontalUncertainty>424.0</minHorizontalUncertainty>
          <maxHorizontalUncertainty>457.1</maxHorizontalUncertainty>
          <azimuthMaxHorizontalUncertainty>119.91</azimuthMaxHorizontalUncertainty>
          <confidenceLevel>90.0</confidenceLevel>
        </originUncertainty>
        <arrival publicID="quakeml:www.seismo.unr.edu/Arrival/6166804">
          <pickID>quakeml:www.seismo.unr.edu/Pick/6166804</pickID>
          <phase>P</phase>
          <azimuth>246.54</azimuth>
          <distance>0.044</distance>
          <timeResidual>-0.184</timeResidual>
          <earthModelID>smi:www.seismo.unr.edu/VelocityModel/pickema2</earthModelID>
          <creationInfo>
            <agencyID>NN</agencyID>
            <creationTime>2014-06-25T17:15:56.175910Z</creationTime>
            <version>6166804</version>
          </creationInfo>
          <css:timedef>d</css:timedef>
        </arrival>
        <arrival publicID="quakeml:www.seismo.unr.edu/Arrival/6166823">
          <pickID>quakeml:www.seismo.unr.edu/Pick/6166823</pickID>
          <phase>P</phase>
          <azimuth>87.08</azimuth>
          <distance>0.078</distance>
          <timeResidual>-0.156</timeResidual>
          <earthModelID>smi:www.seismo.unr.edu/VelocityModel/pickema2</earthModelID>
          <creationInfo>
            <agencyID>NN</agencyID>
            <creationTime>2014-06-25T17:15:56.193880Z</creationTime>
            <version>6166823</version>
          </creationInfo>
          <css:timedef>d</css:timedef>
        </arrival>
        <arrival publicID="quakeml:www.seismo.unr.edu/Arrival/6166824">
          <pickID>quakeml:www.seismo.unr.edu/Pick/6166824</pickID>
          <phase>S</phase>
          <azimuth>87.08</azimuth>
          <distance>0.078</distance>
          <timeResidual>-0.022</timeResidual>
          <earthModelID>smi:www.seismo.unr.edu/VelocityModel/pickema2</earthModelID>
          <creationInfo>
            <agencyID>NN</agencyID>
            <creationTime>2014-06-25T17:15:56.205890Z</creationTime>
            <version>6166824</version>
          </creationInfo>
          <css:timedef>d</css:timedef>
        </arrival>
        <arrival publicID="quakeml:www.seismo.unr.edu/Arrival/6166817">
          <pickID>quakeml:www.seismo.unr.edu/Pick/6166817</pickID>
          <phase>P</phase>
          <azimuth>345.11</azimuth>
          <distance>0.168</distance>
          <timeResidual>-0.035</timeResidual>
          <earthModelID>smi:www.seismo.unr.edu/VelocityModel/pickema2</earthModelID>
          <creationInfo>
            <agencyID>NN</agencyID>
            <creationTime>2014-06-25T17:15:56.217870Z</creationTime>
            <version>6166817</version>
          </creationInfo>
          <css:timedef>d</css:timedef>
        </arrival>
        <arrival publicID="quakeml:www.seismo.unr.edu/Arrival/6166825">
          <pickID>quakeml:www.seismo.unr.edu/Pick/6166825</pickID>
          <phase>S</phase>
          <azimuth>345.11</azimuth>
          <distance>0.168</distance>
          <timeResidual>0.041</timeResidual>
          <earthModelID>smi:www.seismo.unr.edu/VelocityModel/pickema2</earthModelID>
          <creationInfo>
            <agencyID>NN</agencyID>
            <creationTime>2014-06-25T17:15:56.229840Z</creationTime>
            <version>6166825</version>
          </creationInfo>
          <css:timedef>d</css:timedef>
        </arrival>
        <arrival publicID="quakeml:www.seismo.unr.edu/Arrival/6166809">
          <pickID>quakeml:www.seismo.unr.edu/Pick/6166809</pickID>
          <phase>P</phase>
          <azimuth>64.79</azimuth>
          <distance>0.188</distance>
          <timeResidual>0.029</timeResidual>
          <earthModelID>smi:www.seismo.unr.edu/VelocityModel/pickema2</earthModelID>
          <creationInfo>
            <agencyID>NN</agencyID>
            <creationTime>2014-06-25T17:15:56.241980Z</creationTime>
            <version>6166809</version>
          </creationInfo>
          <css:timedef>d</css:timedef>
        </arrival>
        <arrival publicID="quakeml:www.seismo.unr.edu/Arrival/6166826">
          <pickID>quakeml:www.seismo.unr.edu/Pick/6166826</pickID>
          <phase>S</phase>
          <azimuth>64.79</azimuth>
          <distance>0.188</distance>
          <timeResidual>-0.103</timeResidual>
          <earthModelID>smi:www.seismo.unr.edu/VelocityModel/pickema2</earthModelID>
          <creationInfo>
            <agencyID>NN</agencyID>
            <creationTime>2014-06-25T17:15:56.253820Z</creationTime>
            <version>6166826</version>
          </creationInfo>
          <css:timedef>d</css:timedef>
        </arrival>
        <arrival publicID="quakeml:www.seismo.unr.edu/Arrival/6166827">
          <pickID>quakeml:www.seismo.unr.edu/Pick/6166827</pickID>
          <phase>P</phase>
          <azimuth>33.92</azimuth>
          <distance>0.208</distance>
          <timeResidual>-0.024</timeResidual>
          <earthModelID>smi:www.seismo.unr.edu/VelocityModel/pickema2</earthModelID>
          <creationInfo>
            <agencyID>NN</agencyID>
            <creationTime>2014-06-25T17:15:56.265810Z</creationTime>
            <version>6166827</version>
          </creationInfo>
          <css:timedef>d</css:timedef>
        </arrival>
        <arrival publicID="quakeml:www.seismo.unr.edu/Arrival/6166828">
          <pickID>quakeml:www.seismo.unr.edu/Pick/6166828</pickID>
          <phase>S</phase>
          <azimuth>33.92</azimuth>
          <distance>0.208</distance>
          <timeResidual>0.242</timeResidual>
          <earthModelID>smi:www.seismo.unr.edu/VelocityModel/pickema2</earthModelID>
          <creationInfo>
            <agencyID>NN</agencyID>
            <creationTime>2014-06-25T17:15:56.277820Z</creationTime>
            <version>6166828</version>
          </creationInfo>
          <css:timedef>d</css:timedef>
        </arrival>
        <arrival publicID="quakeml:www.seismo.unr.edu/Arrival/6166815">
          <pickID>quakeml:www.seismo.unr.edu/Pick/6166815</pickID>
          <phase>P</phase>
          <azimuth>221.16</azimuth>
          <distance>0.211</distance>
          <timeResidual>0.16</timeResidual>
          <earthModelID>smi:www.seismo.unr.edu/VelocityModel/pickema2</earthModelID>
          <creationInfo>
            <agencyID>NN</agencyID>
            <creationTime>2014-06-25T17:15:56.289800Z</creationTime>
            <version>6166815</version>
          </creationInfo>
          <css:timedef>d</css:timedef>
        </arrival>
        <arrival publicID="quakeml:www.seismo.unr.edu/Arrival/6166829">
          <pickID>quakeml:www.seismo.unr.edu/Pick/6166829</pickID>
          <phase>P</phase>
          <azimuth>29.81</azimuth>
          <distance>0.229</distance>
          <timeResidual>0.131</timeResidual>
          <earthModelID>smi:www.seismo.unr.edu/VelocityModel/pickema2</earthModelID>
          <creationInfo>
            <agencyID>NN</agencyID>
            <creationTime>2014-06-25T17:15:56.304560Z</creationTime>
            <version>6166829</version>
          </creationInfo>
          <css:timedef>d</css:timedef>
        </arrival>
        <arrival publicID="quakeml:www.seismo.unr.edu/Arrival/6166830">
          <pickID>quakeml:www.seismo.unr.edu/Pick/6166830</pickID>
          <phase>S</phase>
          <azimuth>29.81</azimuth>
          <distance>0.229</distance>
          <timeResidual>-0.01</timeResidual>
          <earthModelID>smi:www.seismo.unr.edu/VelocityModel/pickema2</earthModelID>
          <creationInfo>
            <agencyID>NN</agencyID>
            <creationTime>2014-06-25T17:15:56.319770Z</creationTime>
            <version>6166830</version>
          </creationInfo>
          <css:timedef>d</css:timedef>
        </arrival>
        <arrival publicID="quakeml:www.seismo.unr.edu/Arrival/6166855">
          <pickID>quakeml:www.seismo.unr.edu/Pick/6166855</pickID>
          <phase>P</phase>
          <azimuth>126.68</azimuth>
          <distance>0.255</distance>
          <timeResidual>0.125</timeResidual>
          <earthModelID>smi:www.seismo.unr.edu/VelocityModel/pickema2</earthModelID>
          <creationInfo>
            <agencyID>NN</agencyID>
            <creationTime>2014-06-25T17:15:56.332100Z</creationTime>
            <version>6166855</version>
          </creationInfo>
          <css:timedef>d</css:timedef>
        </arrival>
        <arrival publicID="quakeml:www.seismo.unr.edu/Arrival/6166816">
          <pickID>quakeml:www.seismo.unr.edu/Pick/6166816</pickID>
          <phase>P</phase>
          <azimuth>93.17</azimuth>
          <distance>0.259</distance>
          <timeResidual>-0.016</timeResidual>
          <earthModelID>smi:www.seismo.unr.edu/VelocityModel/pickema2</earthModelID>
          <creationInfo>
            <agencyID>NN</agencyID>
            <creationTime>2014-06-25T17:15:56.343770Z</creationTime>
            <version>6166816</version>
          </creationInfo>
          <css:timedef>d</css:timedef>
        </arrival>
        <arrival publicID="quakeml:www.seismo.unr.edu/Arrival/6166831">
          <pickID>quakeml:www.seismo.unr.edu/Pick/6166831</pickID>
          <phase>S</phase>
          <azimuth>93.17</azimuth>
          <distance>0.259</distance>
          <timeResidual>-0.206</timeResidual>
          <earthModelID>smi:www.seismo.unr.edu/VelocityModel/pickema2</earthModelID>
          <creationInfo>
            <agencyID>NN</agencyID>
            <creationTime>2014-06-25T17:15:56.355720Z</creationTime>
            <version>6166831</version>
          </creationInfo>
          <css:timedef>d</css:timedef>
        </arrival>
        <arrival publicID="quakeml:www.seismo.unr.edu/Arrival/6166794">
          <pickID>quakeml:www.seismo.unr.edu/Pick/6166794</pickID>
          <phase>P</phase>
          <azimuth>279.13</azimuth>
          <distance>0.264</distance>
          <timeResidual>-0.081</timeResidual>
          <earthModelID>smi:www.seismo.unr.edu/VelocityModel/pickema2</earthModelID>
          <creationInfo>
            <agencyID>NN</agencyID>
            <creationTime>2014-06-25T17:15:56.367710Z</creationTime>
            <version>6166794</version>
          </creationInfo>
          <css:timedef>d</css:timedef>
        </arrival>
        <arrival publicID="quakeml:www.seismo.unr.edu/Arrival/6166834">
          <pickID>quakeml:www.seismo.unr.edu/Pick/6166834</pickID>
          <phase>S</phase>
          <azimuth>279.13</azimuth>
          <distance>0.264</distance>
          <timeResidual>-0.208</timeResidual>
          <earthModelID>smi:www.seismo.unr.edu/VelocityModel/pickema2</earthModelID>
          <creationInfo>
            <agencyID>NN</agencyID>
            <creationTime>2014-06-25T17:15:56.379700Z</creationTime>
            <version>6166834</version>
          </creationInfo>
          <css:timedef>d</css:timedef>
        </arrival>
        <arrival publicID="quakeml:www.seismo.unr.edu/Arrival/6166799">
          <pickID>quakeml:www.seismo.unr.edu/Pick/6166799</pickID>
          <phase>P</phase>
          <azimuth>317.94</azimuth>
          <distance>0.265</distance>
          <timeResidual>-0.011</timeResidual>
          <earthModelID>smi:www.seismo.unr.edu/VelocityModel/pickema2</earthModelID>
          <creationInfo>
            <agencyID>NN</agencyID>
            <creationTime>2014-06-25T17:15:56.391750Z</creationTime>
            <version>6166799</version>
          </creationInfo>
          <css:timedef>d</css:timedef>
        </arrival>
        <arrival publicID="quakeml:www.seismo.unr.edu/Arrival/6166835">
          <pickID>quakeml:www.seismo.unr.edu/Pick/6166835</pickID>
          <phase>S</phase>
          <azimuth>317.94</azimuth>
          <distance>0.265</distance>
          <timeResidual>0.218</timeResidual>
          <earthModelID>smi:www.seismo.unr.edu/VelocityModel/pickema2</earthModelID>
          <creationInfo>
            <agencyID>NN</agencyID>
            <creationTime>2014-06-25T17:15:56.403700Z</creationTime>
            <version>6166835</version>
          </creationInfo>
          <css:timedef>d</css:timedef>
        </arrival>
        <arrival publicID="quakeml:www.seismo.unr.edu/Arrival/6166798">
          <pickID>quakeml:www.seismo.unr.edu/Pick/6166798</pickID>
          <phase>P</phase>
          <azimuth>297.52</azimuth>
          <distance>0.269</distance>
          <timeResidual>0.108</timeResidual>
          <earthModelID>smi:www.seismo.unr.edu/VelocityModel/pickema2</earthModelID>
          <creationInfo>
            <agencyID>NN</agencyID>
            <creationTime>2014-06-25T17:15:56.415720Z</creationTime>
            <version>6166798</version>
          </creationInfo>
          <css:timedef>d</css:timedef>
        </arrival>
        <arrival publicID="quakeml:www.seismo.unr.edu/Arrival/6166844">
          <pickID>quakeml:www.seismo.unr.edu/Pick/6166844</pickID>
          <phase>S</phase>
          <azimuth>297.52</azimuth>
          <distance>0.269</distance>
          <timeResidual>0.514</timeResidual>
          <earthModelID>smi:www.seismo.unr.edu/VelocityModel/pickema2</earthModelID>
          <creationInfo>
            <agencyID>NN</agencyID>
            <creationTime>2014-06-25T17:15:56.451640Z</creationTime>
            <version>6166844</version>
          </creationInfo>
          <css:timedef>n</css:timedef>
        </arrival>
        <arrival publicID="quakeml:www.seismo.unr.edu/Arrival/6166833">
          <pickID>quakeml:www.seismo.unr.edu/Pick/6166833</pickID>
          <phase>P</phase>
          <azimuth>48.5</azimuth>
          <distance>0.271</distance>
          <timeResidual>0.113</timeResidual>
          <earthModelID>smi:www.seismo.unr.edu/VelocityModel/pickema2</earthModelID>
          <creationInfo>
            <agencyID>NN</agencyID>
            <creationTime>2014-06-25T17:15:56.463640Z</creationTime>
            <version>6166833</version>
          </creationInfo>
          <css:timedef>d</css:timedef>
        </arrival>
        <arrival publicID="quakeml:www.seismo.unr.edu/Arrival/6166832">
          <pickID>quakeml:www.seismo.unr.edu/Pick/6166832</pickID>
          <phase>S</phase>
          <azimuth>48.5</azimuth>
          <distance>0.271</distance>
          <timeResidual>0.395</timeResidual>
          <earthModelID>smi:www.seismo.unr.edu/VelocityModel/pickema2</earthModelID>
          <creationInfo>
            <agencyID>NN</agencyID>
            <creationTime>2014-06-25T17:15:56.475600Z</creationTime>
            <version>6166832</version>
          </creationInfo>
          <css:timedef>n</css:timedef>
        </arrival>
        <arrival publicID="quakeml:www.seismo.unr.edu/Arrival/6166838">
          <pickID>quakeml:www.seismo.unr.edu/Pick/6166838</pickID>
          <phase>P</phase>
          <azimuth>24.56</azimuth>
          <distance>0.29</distance>
          <timeResidual>0.005</timeResidual>
          <earthModelID>smi:www.seismo.unr.edu/VelocityModel/pickema2</earthModelID>
          <creationInfo>
            <agencyID>NN</agencyID>
            <creationTime>2014-06-25T17:15:56.487590Z</creationTime>
            <version>6166838</version>
          </creationInfo>
          <css:timedef>d</css:timedef>
        </arrival>
        <arrival publicID="quakeml:www.seismo.unr.edu/Arrival/6166837">
          <pickID>quakeml:www.seismo.unr.edu/Pick/6166837</pickID>
          <phase>S</phase>
          <azimuth>24.56</azimuth>
          <distance>0.29</distance>
          <timeResidual>0.045</timeResidual>
          <earthModelID>smi:www.seismo.unr.edu/VelocityModel/pickema2</earthModelID>
          <creationInfo>
            <agencyID>NN</agencyID>
            <creationTime>2014-06-25T17:15:56.499580Z</creationTime>
            <version>6166837</version>
          </creationInfo>
          <css:timedef>d</css:timedef>
        </arrival>
        <arrival publicID="quakeml:www.seismo.unr.edu/Arrival/6166810">
          <pickID>quakeml:www.seismo.unr.edu/Pick/6166810</pickID>
          <phase>P</phase>
          <azimuth>207.16</azimuth>
          <distance>0.291</distance>
          <timeResidual>0.118</timeResidual>
          <earthModelID>smi:www.seismo.unr.edu/VelocityModel/pickema2</earthModelID>
          <creationInfo>
            <agencyID>NN</agencyID>
            <creationTime>2014-06-25T17:15:56.511560Z</creationTime>
            <version>6166810</version>
          </creationInfo>
          <css:timedef>d</css:timedef>
        </arrival>
        <arrival publicID="quakeml:www.seismo.unr.edu/Arrival/6166836">
          <pickID>quakeml:www.seismo.unr.edu/Pick/6166836</pickID>
          <phase>S</phase>
          <azimuth>207.16</azimuth>
          <distance>0.291</distance>
          <timeResidual>0.15</timeResidual>
          <earthModelID>smi:www.seismo.unr.edu/VelocityModel/pickema2</earthModelID>
          <creationInfo>
            <agencyID>NN</agencyID>
            <creationTime>2014-06-25T17:15:56.523580Z</creationTime>
            <version>6166836</version>
          </creationInfo>
          <css:timedef>d</css:timedef>
        </arrival>
        <arrival publicID="quakeml:www.seismo.unr.edu/Arrival/6166839">
          <pickID>quakeml:www.seismo.unr.edu/Pick/6166839</pickID>
